[{"OBJECT_NAME":"STARLINK-5311","OBJECT_ID":"2023-010V","EPOCH":"2026-03-09T23:37:12.408096","MEAN_MOTION":14.98345855,"ECCENTRICITY":0.00028196,"INCLINATION":70.0071,"RA_OF_ASC_NODE":23.7081,"ARG_OF_PERICENTER":254.1785,"MEAN_ANOMALY":105.9063,"EPHEMERIS_TYPE":0,"CLASSIFICATION_TYPE":"U","NORAD_CAT_ID":55288,"ELEMENT_SET_NO":999,"REV_AT_EPOCH":17331,"BSTAR":0.00096810895,"MEAN_MOTION_DOT":0.00011482,"MEAN_MOTION_DDOT":0},{"OBJECT_NAME":"SITRO-AIS 13","OBJECT_ID":"2024-199J","EPOCH":"2026-03-09T21:50:28.432320","MEAN_MOTION":14.9731664,"ECCENTRICITY":0.00074694,"INCLINATION":97.3312,"RA_OF_ASC_NODE":274.5755,"ARG_OF_PERICENTER":53.5174,"MEAN_ANOMALY":306.6736,"EPHEMERIS_TYPE":0,"CLASSIFICATION_TYPE":"U","NORAD_CAT_ID":61743,"ELEMENT_SET_NO":999,"REV_AT_EPOCH":11713,"BSTAR":0.00039590089,"MEAN_MOTION_DOT":4.542e-5,"MEAN_MOTION_DDOT":0}]
